OBJECT_NAME,OBJECT_ID,EPOCH,MEAN_MOTION,ECCENTRICITY,INCLINATION,RA_OF_ASC_NODE,ARG_OF_PERICENTER,MEAN_ANOMALY,EPHEMERIS_TYPE,CLASSIFICATION_TYPE,NORAD_CAT_ID,ELEMENT_SET_NO,REV_AT_EPOCH,BSTAR,MEAN_MOTION_DOT,MEAN_MOTION_DDOT
GSAT-10,2012-051B,2026-06-24T04:29:01.250592,1.00272236,.00080596,0.0635,260.2141,189.6185,332.7865,0,U,38779,999,5016,0,-.158E-5,0
INTELSAT 23 (IS-23),2012-057A,2026-06-24T05:11:46.536576,1.00272280,.0000044,0.0135,2.5807,206.2330,88.4905,0,U,38867,999,5002,0,-.277E-5,0
BEIDOU-2 G6,2012-059A,2026-06-24T02:46:37.592832,1.00271582,.00097976,4.4398,73.4545,327.8672,356.6455,0,U,38953,999,4997,0,-.171E-5,0
LUCH-5B,2012-061A,2026-06-23T22:52:44.618016,1.00272473,.00024109,10.4988,49.8169,139.8297,49.3891,0,U,38977,999,4967,0,-.139E-5,0
YAMAL 300K,2012-061B,2026-06-24T13:30:52.998624,1.00269661,.0000852,0.0175,359.4912,240.3004,58.5873,0,U,38978,999,4970,0,0,0
STAR ONE C3,2012-062A,2026-06-24T05:26:43.347840,1.00272700,.00024743,0.0182,29.7664,71.8748,177.4255,0,U,38991,999,4983,0,-.242E-5,0
EUTELSAT 21B,2012-062B,2026-06-24T04:11:32.925696,1.00270812,.00029474,0.0648,359.4829,84.4357,272.8911,0,U,38992,999,4989,0,.137E-5,0
ECHOSTAR 16,2012-065A,2026-06-24T03:55:10.378848,1.00265430,.00018082,0.0162,8.4755,82.8146,178.3250,0,U,39008,999,4971,0,-.274E-5,0
ZHONGXING-12,2012-067A,2026-06-24T12:01:10.554240,1.00271106,.0003155,0.0224,92.7490,354.7093,92.9778,0,U,39017,999,4958,0,-.198E-5,0
EUTELSAT 70B,2012-069A,2026-06-24T04:25:31.586304,1.00275038,.00036019,0.0616,347.0522,101.2425,320.9438,0,U,39020,999,4957,0,-.37E-6,0
YAMAL 402,2012-070A,2026-06-24T04:21:02.016576,1.00273030,.00040038,1.2835,84.0848,7.2119,301.1953,0,U,39022,999,4946,0,.92E-6,0
SKYNET 5D,2012-075A,2026-06-24T05:29:38.510016,1.00274577,.00039304,0.0689,341.0118,123.3436,303.2261,0,U,39034,999,4922,0,.106E-5,0
MEXSAT 3,2012-075B,2026-06-24T05:15:16.142976,1.00275719,.00012686,0.0163,316.1059,107.3984,172.8683,0,U,39035,999,712,0,-.19E-6,0
TDRS 11,2013-004A,2026-06-24T04:58:21.645408,1.00271968,.00051554,3.5308,31.3702,23.0302,118.1115,0,U,39070,999,4676,0,.84E-6,0
AMAZONAS 3,2013-006A,2026-06-24T03:55:10.403904,1.00269878,.00024279,0.0509,237.0912,254.1919,138.8229,0,U,39078,999,4498,0,-.275E-5,0
AZERSPACE 1,2013-006B,2026-06-24T05:29:38.510016,1.00273709,.00017849,0.0151,300.9451,180.7137,279.1200,0,U,39079,999,4887,0,.14E-5,0
SBIRS GEO-2 (USA 241),2013-011A,2026-06-24T03:51:12.376224,1.00271562,.00020201,4.5040,52.5097,34.8389,192.9688,0,U,39120,999,4860,0,-.282E-5,0
EUTELSAT 117 WEST A,2013-012A,2026-06-24T05:14:46.190688,1.00273854,.00030712,0.0353,293.4007,160.6613,140.2131,0,U,39122,999,4850,0,-.6E-7,0
ANIK G1,2013-014A,2026-06-24T04:42:24.263424,1.00272378,.00018464,0.0292,278.3642,170.3856,146.8868,0,U,39127,999,4832,0,-.67E-6,0
ZHONGXING-11,2013-020A,2026-06-23T19:12:30.316032,1.00272551,.00025053,0.0237,303.8002,125.6973,228.4994,0,U,39157,999,4796,0,-.284E-5,0
EUTELSAT 7B,2013-022A,2026-06-24T04:07:25.820832,1.00271937,.0004405,0.0648,5.9513,34.5819,300.6369,0,U,39163,999,4801,0,.55E-6,0
WGS F5 (USA 243),2013-024A,2026-06-24T05:11:46.583232,1.00269128,.00002966,0.0234,0.0871,67.8923,229.8287,0,U,39168,999,4724,0,0,0
SES-6,2013-026A,2026-06-24T03:53:49.625088,1.00271626,.00027723,0.0159,358.3502,98.4775,193.4548,0,U,39172,999,4779,0,-.254E-5,0
IRNSS-1A,2013-034A,2026-06-18T21:29:26.733984,1.00275723,.00175894,35.7241,63.8469,183.2529,37.3106,0,U,39199,999,4738,0,.51E-6,0
MUOS-2,2013-036A,2026-06-23T22:03:49.684320,1.00274319,.00514686,5.0081,45.5368,177.3005,192.2060,0,U,39206,999,4726,0,-.9E-7,0
ALPHASAT,2013-038A,2026-06-23T23:33:03.692736,1.00274507,.00020642,2.9986,1.2759,101.5326,187.4837,0,U,39215,999,4408,0,.138E-5,0
INSAT-3D,2013-038B,2026-06-24T00:47:38.523264,1.00272993,.00010584,1.9444,82.4640,357.3034,333.8484,0,U,39216,999,4714,0,-.333E-5,0
WGS F6 (USA 244),2013-041A,2026-06-24T01:44:16.897920,1.00271464,.00004246,0.0174,16.7336,32.8079,113.5525,0,U,39222,999,4613,0,.96E-6,0
ES'HAIL 1,2013-044A,2026-06-24T04:12:40.319424,1.00272521,.00021413,0.0476,7.1885,80.7533,273.0207,0,U,39233,999,4669,0,.15E-5,0
GSAT-7,2013-044B,2026-06-24T02:43:52.855680,1.00271592,.00027379,0.1007,92.3983,189.7228,105.0700,0,U,39234,999,4532,0,-.69E-6,0
AMOS-4,2013-045A,2026-06-23T23:15:59.785344,1.00273351,.00023825,0.0280,60.1731,11.9715,253.9884,0,U,39237,999,4702,0,0,0
AEHF-3 (USA 246),2013-050A,2026-06-24T05:44:03.253920,1.00274351,.0087966,5.3103,67.1195,188.0182,339.0328,0,U,39256,999,4572,0,.32E-6,0
