GSAT-10                 
1 38779U 12051B   26175.18682003 -.00000158  00000+0  00000+0 0  9995
2 38779   0.0635 260.2141 0008059 189.6185 332.7865  1.00272236 50165
INTELSAT 23 (IS-23)     
1 38867U 12057A   26175.21651084 -.00000277  00000+0  00000+0 0  9990
2 38867   0.0135   2.5807 0000044 206.2330  88.4905  1.00272280 50022
BEIDOU-2 G6             
1 38953U 12059A   26175.11571288 -.00000171  00000+0  00000+0 0  9997
2 38953   4.4398  73.4545 0009797 327.8672 356.6455  1.00271582 49972
LUCH-5B                 
1 38977U 12061A   26174.95329419 -.00000139  00000+0  00000+0 0  9998
2 38977  10.4988  49.8169 0002410 139.8297  49.3891  1.00272473 49675
YAMAL 300K              
1 38978U 12061B   26175.56311341  .00000000  00000+0  00000+0 0  9998
2 38978   0.0175 359.4912 0000852 240.3004  58.5873  1.00269661 49708
STAR ONE C3             
1 38991U 12062A   26175.22689060 -.00000242  00000+0  00000+0 0  9992
2 38991   0.0182  29.7664 0002474  71.8748 177.4255  1.00272700 49833
EUTELSAT 21B            
1 38992U 12062B   26175.17468664  .00000137  00000+0  00000+0 0  9994
2 38992   0.0648 359.4829 0002947  84.4357 272.8911  1.00270812 49895
ECHOSTAR 16             
1 39008U 12065A   26175.16331457 -.00000274  00000+0  00000+0 0  9997
2 39008   0.0162   8.4755 0001808  82.8146 178.3250  1.00265430 49714
ZHONGXING-12            
1 39017U 12067A   26175.50081660 -.00000198  00000+0  00000+0 0  9990
2 39017   0.0224  92.7490 0003155 354.7093  92.9778  1.00271106 49582
EUTELSAT 70B            
1 39020U 12069A   26175.18439336 -.00000037  00000+0  00000+0 0  9999
2 39020   0.0616 347.0522 0003601 101.2425 320.9438  1.00275038 49577
YAMAL 402               
1 39022U 12070A   26175.18127334  .00000092  00000+0  00000+0 0  9995
2 39022   1.2835  84.0848 0004003   7.2119 301.1953  1.00273030 49467
SKYNET 5D               
1 39034U 12075A   26175.22891794  .00000106  00000+0  00000+0 0  9992
2 39034   0.0689 341.0118 0003930 123.3436 303.2261  1.00274577 49226
MEXSAT 3                
1 39035U 12075B   26175.21893684 -.00000019  00000+0  00000+0 0  9996
2 39035   0.0163 316.1059 0001268 107.3984 172.8683  1.00275719  7123
TDRS 11                 
1 39070U 13004A   26175.20719497  .00000084  00000+0  00000+0 0  9997
2 39070   3.5308  31.3702 0005155  23.0302 118.1115  1.00271968 46767
AMAZONAS 3              
1 39078U 13006A   26175.16331486 -.00000275  00000+0  00000+0 0  9993
2 39078   0.0509 237.0912 0002427 254.1919 138.8229  1.00269878 44982
AZERSPACE 1             
1 39079U 13006B   26175.22891794  .00000140  00000+0  00000+0 0  9994
2 39079   0.0151 300.9451 0001784 180.7137 279.1200  1.00273709 48873
SBIRS GEO-2 (USA 241)   
1 39120U 13011A   26175.16055991 -.00000282  00000+0  00000+0 0  9999
2 39120   4.5040  52.5097 0002020  34.8389 192.9688  1.00271562 48602
EUTELSAT 117 WEST A     
1 39122U 13012A   26175.21859017 -.00000006  00000+0  00000+0 0  9993
2 39122   0.0353 293.4007 0003071 160.6613 140.2131  1.00273854 48508
ANIK G1                 
1 39127U 13014A   26175.19611416 -.00000067  00000+0  00000+0 0  9993
2 39127   0.0292 278.3642 0001846 170.3856 146.8868  1.00272378 48326
ZHONGXING-11            
1 39157U 13020A   26174.80035088 -.00000284  00000+0  00000+0 0  9996
2 39157   0.0237 303.8002 0002505 125.6973 228.4994  1.00272551 47967
EUTELSAT 7B             
1 39163U 13022A   26175.17182663  .00000055  00000+0  00000+0 0  9993
2 39163   0.0648   5.9513 0004405  34.5819 300.6369  1.00271937 48018
WGS F5 (USA 243)        
1 39168U 13024A   26175.21651138  .00000000  00000+0  00000+0 0  9993
2 39168   0.0234   0.0871 0000296  67.8923 229.8287  1.00269128 47240
SES-6                   
1 39172U 13026A   26175.16237992 -.00000254  00000+0  00000+0 0  9994
2 39172   0.0159 358.3502 0002772  98.4775 193.4548  1.00271626 47799
IRNSS-1A                
1 39199U 13034A   26169.89544831  .00000051  00000+0  00000+0 0  9992
2 39199  35.7241  63.8469 0017589 183.2529  37.3106  1.00275723 47380
MUOS-2                  
1 39206U 13036A   26174.91932505 -.00000009  00000+0  00000+0 0  9995
2 39206   5.0081  45.5368 0051468 177.3005 192.2060  1.00274319 47260
ALPHASAT                
1 39215U 13038A   26174.98129274  .00000138  00000+0  00000+0 0  9997
2 39215   2.9986   1.2759 0002064 101.5326 187.4837  1.00274507 44080
INSAT-3D                
1 39216U 13038B   26175.03308476 -.00000333  00000+0  00000+0 0  9996
2 39216   1.9444  82.4640 0001058 357.3034 333.8484  1.00272993 47140
WGS F6 (USA 244)        
1 39222U 13041A   26175.07241780  .00000096  00000+0  00000+0 0  9990
2 39222   0.0174  16.7336 0000424  32.8079 113.5525  1.00271464 46138
ES'HAIL 1               
1 39233U 13044A   26175.17546666  .00000150  00000+0  00000+0 0  9998
2 39233   0.0476   7.1885 0002141  80.7533 273.0207  1.00272521 46698
GSAT-7                  
1 39234U 13044B   26175.11380620 -.00000069  00000+0  00000+0 0  9999
2 39234   0.1007  92.3983 0002737 189.7228 105.0700  1.00271592 45325
AMOS-4                  
1 39237U 13045A   26174.96944196  .00000000  00000+0  00000+0 0  9993
2 39237   0.0280  60.1731 0002382  11.9715 253.9884  1.00273351 47027
AEHF-3 (USA 246)        
1 39256U 13050A   26175.23892655  .00000032  00000+0  00000+0 0  9998
2 39256   5.3103  67.1195 0087966 188.0182 339.0328  1.00274351 45721
